SKYSAT-A                
1 39418U 13066C   26201.12557983  .00001551  00000+0  90738-4 0  9994
2 39418  97.3797 249.4729 0020934 195.8174 164.2407 15.13130846693463
SKYSAT-B                
1 40072U 14037D   26201.14096470  .00000569  00000+0  68554-4 0  9991
2 40072  98.3857 161.9901 0005938 157.5218 202.6259 14.88098478650864
SKYSAT-C1               
1 41601U 16040C   26201.03817989  .00004910  00000+0  13865-3 0  9998
2 41601  96.9553 230.9857 0000592 200.8282 159.2940 15.36795530562910
SKYSAT-C4               
1 41771U 16058B   26201.01802839  .00010322  00000+0  18875-3 0  9991
2 41771  96.9171 221.4354 0003555 111.3811 248.7822 15.49535299550555
SKYSAT-C5               
1 41772U 16058C   26201.10448900  .00003899  00000+0  12170-3 0  9990
2 41772  97.0452 240.2632 0003067 148.6501 211.4926 15.33757415548799
SKYSAT-C2               
1 41773U 16058D   26201.02132536  .00007045  00000+0  16310-3 0  9994
2 41773  97.0163 221.8941 0000811 320.8207  39.2982 15.42746945550111
SKYSAT-C3               
1 41774U 16058E   26201.06439642  .00014503  00000+0  22691-3 0  9993
2 41774  96.8998 230.6733 0002719 127.1966 232.9537 15.53846132551212
SKYSAT-C11              
1 42987U 17068A   26200.99027970  .00017500  00000+0  22210-3 0  9997
2 42987  97.4390 351.2973 0001454 153.1911 206.9421 15.59495163488359
SKYSAT-C10              
1 42988U 17068B   26201.27955941  .00005999  00000+0  17811-3 0  9998
2 42988  97.4544 338.4695 0001554 110.9574 249.1836 15.35176950487437
SKYSAT-C9               
1 42989U 17068C   26200.88116339  .00007038  00000+0  16549-3 0  9998
2 42989  97.4468 339.3191 0008234  29.4444 330.7266 15.42281891487798
SKYSAT-C8               
1 42990U 17068D   26200.93968811  .00005765  00000+0  15880-3 0  9998
2 42990  97.4562 338.0520 0001292 106.4658 253.6729 15.37546198487343
SKYSAT-C7               
1 42991U 17068E   26201.19465394  .00005648  00000+0  15582-3 0  9995
2 42991  97.4573 339.3027 0005236   3.9934 356.1352 15.37498493487448
SKYSAT-C6               
1 42992U 17068F   26201.14996308  .00005084  00000+0  15590-3 0  9998
2 42992  97.4611 339.0883 0004970  76.2150 283.9645 15.34219330487378
SKYSAT-C12              
1 43797U 18099AR  26201.03179784  .00010445  00000+0  18859-3 0  9994
2 43797  96.9258 222.9686 0004974  59.5343 300.6400 15.49887950426943
