{"fetched_at":"2026-07-20T18:28:56.744Z","source":"https://celestrak.org/NORAD/elements/gp.php?GROUP=planet&FORMAT=JSON","constellation":"skysat","records":[{"OBJECT_NAME":"SKYSAT-A","OBJECT_ID":"2013-066C","EPOCH":"2026-07-20T03:00:50.097312","CLASSIFICATION_TYPE":"U","MEAN_MOTION":15.13130846,"ECCENTRICITY":0.00209349,"INCLINATION":97.3797,"RA_OF_ASC_NODE":249.4729,"ARG_OF_PERICENTER":195.8174,"MEAN_ANOMALY":164.2407,"EPHEMERIS_TYPE":0,"NORAD_CAT_ID":39418,"ELEMENT_SET_NO":999,"REV_AT_EPOCH":69346,"BSTAR":0.000090737769,"MEAN_MOTION_DOT":0.00001551,"MEAN_MOTION_DDOT":0},{"OBJECT_NAME":"SKYSAT-B","OBJECT_ID":"2014-037D","EPOCH":"2026-07-20T03:22:59.350080","CLASSIFICATION_TYPE":"U","MEAN_MOTION":14.88098478,"ECCENTRICITY":0.00059383,"INCLINATION":98.3857,"RA_OF_ASC_NODE":161.9901,"ARG_OF_PERICENTER":157.5218,"MEAN_ANOMALY":202.6259,"EPHEMERIS_TYPE":0,"NORAD_CAT_ID":40072,"ELEMENT_SET_NO":999,"REV_AT_EPOCH":65086,"BSTAR":0.000068554193,"MEAN_MOTION_DOT":0.00000569,"MEAN_MOTION_DDOT":0},{"OBJECT_NAME":"SKYSAT-C1","OBJECT_ID":"2016-040C","EPOCH":"2026-07-20T00:54:58.742496","CLASSIFICATION_TYPE":"U","MEAN_MOTION":15.3679553,"ECCENTRICITY":0.00005921,"INCLINATION":96.9553,"RA_OF_ASC_NODE":230.9857,"ARG_OF_PERICENTER":200.8282,"MEAN_ANOMALY":159.294,"EPHEMERIS_TYPE":0,"NORAD_CAT_ID":41601,"ELEMENT_SET_NO":999,"REV_AT_EPOCH":56291,"BSTAR":0.00013865095,"MEAN_MOTION_DOT":0.0000491,"MEAN_MOTION_DDOT":0},{"OBJECT_NAME":"SKYSAT-C4","OBJECT_ID":"2016-058B","EPOCH":"2026-07-20T00:25:57.652896","CLASSIFICATION_TYPE":"U","MEAN_MOTION":15.49535299,"ECCENTRICITY":0.00035559,"INCLINATION":96.9171,"RA_OF_ASC_NODE":221.4354,"ARG_OF_PERICENTER":111.3811,"MEAN_ANOMALY":248.7822,"EPHEMERIS_TYPE":0,"NORAD_CAT_ID":41771,"ELEMENT_SET_NO":999,"REV_AT_EPOCH":55055,"BSTAR":0.00018874633,"MEAN_MOTION_DOT":0.00010322,"MEAN_MOTION_DDOT":0},{"OBJECT_NAME":"SKYSAT-C5","OBJECT_ID":"2016-058C","EPOCH":"2026-07-20T02:30:27.849600","CLASSIFICATION_TYPE":"U","MEAN_MOTION":15.33757415,"ECCENTRICITY":0.00030674,"INCLINATION":97.0452,"RA_OF_ASC_NODE":240.2632,"ARG_OF_PERICENTER":148.6501,"MEAN_ANOMALY":211.4926,"EPHEMERIS_TYPE":0,"NORAD_CAT_ID":41772,"ELEMENT_SET_NO":999,"REV_AT_EPOCH":54879,"BSTAR":0.00012169705,"MEAN_MOTION_DOT":0.00003899,"MEAN_MOTION_DDOT":0},{"OBJECT_NAME":"SKYSAT-C2","OBJECT_ID":"2016-058D","EPOCH":"2026-07-20T00:30:42.511104","CLASSIFICATION_TYPE":"U","MEAN_MOTION":15.42746945,"ECCENTRICITY":0.00008112,"INCLINATION":97.0163,"RA_OF_ASC_NODE":221.8941,"ARG_OF_PERICENTER":320.8207,"MEAN_ANOMALY":39.2982,"EPHEMERIS_TYPE":0,"NORAD_CAT_ID":41773,"ELEMENT_SET_NO":999,"REV_AT_EPOCH":55011,"BSTAR":0.00016309524,"MEAN_MOTION_DOT":0.00007045,"MEAN_MOTION_DDOT":0},{"OBJECT_NAME":"SKYSAT-C3","OBJECT_ID":"2016-058E","EPOCH":"2026-07-20T01:32:43.850688","CLASSIFICATION_TYPE":"U","MEAN_MOTION":15.53846132,"ECCENTRICITY":0.00027191,"INCLINATION":96.8998,"RA_OF_ASC_NODE":230.6733,"ARG_OF_PERICENTER":127.1966,"MEAN_ANOMALY":232.9537,"EPHEMERIS_TYPE":0,"NORAD_CAT_ID":41774,"ELEMENT_SET_NO":999,"REV_AT_EPOCH":55121,"BSTAR":0.00022690805,"MEAN_MOTION_DOT":0.00014503,"MEAN_MOTION_DDOT":0},{"OBJECT_NAME":"SKYSAT-C11","OBJECT_ID":"2017-068A","EPOCH":"2026-07-19T23:46:00.166080","CLASSIFICATION_TYPE":"U","MEAN_MOTION":15.59495163,"ECCENTRICITY":0.00014542,"INCLINATION":97.439,"RA_OF_ASC_NODE":351.2973,"ARG_OF_PERICENTER":153.1911,"MEAN_ANOMALY":206.9421,"EPHEMERIS_TYPE":0,"NORAD_CAT_ID":42987,"ELEMENT_SET_NO":999,"REV_AT_EPOCH":48835,"BSTAR":0.00022209797,"MEAN_MOTION_DOT":0.000175,"MEAN_MOTION_DDOT":0},{"OBJECT_NAME":"SKYSAT-C10","OBJECT_ID":"2017-068B","EPOCH":"2026-07-20T06:42:33.933024","CLASSIFICATION_TYPE":"U","MEAN_MOTION":15.3517695,"ECCENTRICITY":0.00015544,"INCLINATION":97.4544,"RA_OF_ASC_NODE":338.4695,"ARG_OF_PERICENTER":110.9574,"MEAN_ANOMALY":249.1836,"EPHEMERIS_TYPE":0,"NORAD_CAT_ID":42988,"ELEMENT_SET_NO":999,"REV_AT_EPOCH":48743,"BSTAR":0.00017811011,"MEAN_MOTION_DOT":0.00005999,"MEAN_MOTION_DDOT":0},{"OBJECT_NAME":"SKYSAT-C9","OBJECT_ID":"2017-068C","EPOCH":"2026-07-19T21:08:52.516896","CLASSIFICATION_TYPE":"U","MEAN_MOTION":15.42281891,"ECCENTRICITY":0.00082345,"INCLINATION":97.4468,"RA_OF_ASC_NODE":339.3191,"ARG_OF_PERICENTER":29.4444,"MEAN_ANOMALY":330.7266,"EPHEMERIS_TYPE":0,"NORAD_CAT_ID":42989,"ELEMENT_SET_NO":999,"REV_AT_EPOCH":48779,"BSTAR":0.00016548829,"MEAN_MOTION_DOT":0.00007038,"MEAN_MOTION_DDOT":0},{"OBJECT_NAME":"SKYSAT-C8","OBJECT_ID":"2017-068D","EPOCH":"2026-07-19T22:33:09.052704","CLASSIFICATION_TYPE":"U","MEAN_MOTION":15.37546198,"ECCENTRICITY":0.0001292,"INCLINATION":97.4562,"RA_OF_ASC_NODE":338.052,"ARG_OF_PERICENTER":106.4658,"MEAN_ANOMALY":253.6729,"EPHEMERIS_TYPE":0,"NORAD_CAT_ID":42990,"ELEMENT_SET_NO":999,"REV_AT_EPOCH":48734,"BSTAR":0.0001587989,"MEAN_MOTION_DOT":0.00005765,"MEAN_MOTION_DDOT":0},{"OBJECT_NAME":"SKYSAT-C7","OBJECT_ID":"2017-068E","EPOCH":"2026-07-20T04:40:18.100416","CLASSIFICATION_TYPE":"U","MEAN_MOTION":15.37498493,"ECCENTRICITY":0.00052362,"INCLINATION":97.4573,"RA_OF_ASC_NODE":339.3027,"ARG_OF_PERICENTER":3.9934,"MEAN_ANOMALY":356.1352,"EPHEMERIS_TYPE":0,"NORAD_CAT_ID":42991,"ELEMENT_SET_NO":999,"REV_AT_EPOCH":48744,"BSTAR":0.00015582317,"MEAN_MOTION_DOT":0.00005648,"MEAN_MOTION_DDOT":0},{"OBJECT_NAME":"SKYSAT-C6","OBJECT_ID":"2017-068F","EPOCH":"2026-07-20T03:35:56.810112","CLASSIFICATION_TYPE":"U","MEAN_MOTION":15.3421933,"ECCENTRICITY":0.00049708,"INCLINATION":97.4611,"RA_OF_ASC_NODE":339.0883,"ARG_OF_PERICENTER":76.215,"MEAN_ANOMALY":283.9645,"EPHEMERIS_TYPE":0,"NORAD_CAT_ID":42992,"ELEMENT_SET_NO":999,"REV_AT_EPOCH":48737,"BSTAR":0.00015590287,"MEAN_MOTION_DOT":0.00005084,"MEAN_MOTION_DDOT":0},{"OBJECT_NAME":"SKYSAT-C12","OBJECT_ID":"2018-099AR","EPOCH":"2026-07-20T00:45:47.333376","CLASSIFICATION_TYPE":"U","MEAN_MOTION":15.4988795,"ECCENTRICITY":0.00049743,"INCLINATION":96.9258,"RA_OF_ASC_NODE":222.9686,"ARG_OF_PERICENTER":59.5343,"MEAN_ANOMALY":300.64,"EPHEMERIS_TYPE":0,"NORAD_CAT_ID":43797,"ELEMENT_SET_NO":999,"REV_AT_EPOCH":42694,"BSTAR":0.00018858967,"MEAN_MOTION_DOT":0.00010445,"MEAN_MOTION_DDOT":0}]}
